DIAMOND RED             
1 42783U 17036U   24045.37073971  .00160389  00000+0  14748-2 0  9995
2 42783  97.1130  82.8668 0001791 302.2717  57.8371 15.67176801370323
DIAMOND GREEN           
1 42785U 17036W   24045.83992319  .00210573  00000+0  14162-2 0  9995
2 42785  97.1095  84.4720 0001347 270.2330  89.8781 15.74558019370541
DIAMOND BLUE            
1 42786U 17036X   24045.84619749  .00172116  00000+0  13804-2 0  9992
2 42786  97.1139  83.9321 0001789 271.9220  88.1838 15.70492223370509
CICERO 6                
1 42793U 17036AE  24045.65149441  .00081253  00000+0  10342-2 0  9991
2 42793  97.1142  81.9231 0002548 298.7579  61.3421 15.59081113370383
CORVUS BC2              
1 42846U 17042X   24045.47052050  .00006492  00000+0  57593-3 0  9998
2 42846  97.3732 237.5625 0009854 112.5198 247.7068 14.96463119358936
CORVUS BC1              
1 42847U 17042Y   24045.77818455  .00005347  00000+0  47349-3 0  9997
2 42847  97.3732 238.2370 0009224 109.8648 250.3570 14.96614339358998
MIRATA                  
1 43015U 17073C   24045.63573229  .00029638  00000+0  15650-2 0  9999
2 43015  97.6097 292.2734 0187444 321.4753  37.3214 15.01521380337756
MAKERSAT 0              
1 43016U 17073D   24045.63558612  .00020172  00000+0  12258-2 0  9994
2 43016  97.5999 288.2794 0207188 337.7148  21.5165 14.94274431337443
CORVUS BC3              
1 43118U 18004H   24045.72676518  .00080406  00000+0  10376-2 0  9993
2 43118  97.2986 127.3415 0004439 327.4426  32.6556 15.58710768339528
GOMX-4B                 
1 43196U 18015E   24045.70844846  .00046773  00000+0  83453-3 0  9996
2 43196  97.5985 211.3450 0010284  47.0721 313.1391 15.49877797336322
GOMX-4A                 
1 43197U 18015F   24045.88883325  .00063238  00000+0  91915-3 0  9998
2 43197  97.5937 215.2010 0009445  37.0202 323.1701 15.55528873336607
CUBEBEL-1 (BSUSAT-1)    
1 43666U 18083E   24045.70287612  .00464908  00000+0  19814-2 0  9998
2 43666  97.3364  88.4442 0002156 282.9520  77.1509 15.84050323294826
CICERO 10               
1 43690U 18088A   24045.67063030  .00073035  00000+0  11310-2 0  9992
2 43690  85.0192 266.7470 0009886  43.4470 316.7566 15.53720744292896
PROXIMA I               
1 43694U 18088E   24045.63312669  .00093192  00000+0  10412-2 0  9995
2 43694  85.0118 260.9264 0008552   9.0117 351.1299 15.62402519293287
PROXIMA II              
1 43696U 18088G   24045.87734561  .00098022  00000+0  11156-2 0  9995
2 43696  85.0104 260.8740 0008167   6.6756 353.4614 15.61913558293315
SIRION PATHFINDER-2     
1 43759U 18099B   24045.90668446  .00008840  00000+0  69303-3 0  9996
2 43759  97.5446 105.5459 0015466 356.8462   3.2662 15.01105953284003
CORVUS BC4              
1 43767U 18099K   24045.88785024  .00007722  00000+0  61583-3 0  9994
2 43767  97.5288 103.1154 0012926  56.4864 303.7593 15.00518729283894
MOVE-II                 
1 43780U 18099Y   24045.68383827  .00020564  00000+0  12454-2 0  9993
2 43780  97.5385 110.2402 0008297  50.2925 309.9035 15.10595833284250
SPACEBEE-7              
1 43816U 18099BL  24045.71308211  .00016432  00000+0  10772-2 0  9991
2 43816  97.5660 111.1970 0010686 359.2998   0.8213 15.07723065283781
SPACEBEE-5              
1 43817U 18099BM  24045.47705789  .01037749  00000+0  53814-2 0  9995
2 43817  97.5458 128.8624 0009991 293.6359  66.3858 15.78665088284845
SPACEBEE-6              
1 43818U 18099BN  24045.69758608  .00028957  00000+0  15393-2 0  9998
2 43818  97.5576 114.8828 0009939   5.5552 354.5789 15.15194074284168
SHIELDS 1               
1 43850U 18104B   24045.90872377  .00018211  00000+0  55308-3 0  9998
2 43850  85.0274   6.5142 0012337 159.7895 200.3844 15.33874084287243
STF-1                   
1 43852U 18104D   24045.88167975  .01294496  10150-2  17567-2 0  9994
2 43852  84.9955 356.8786 0012593 129.3291 230.9115 16.06467597288217
ZACUBE-2                
1 43907U 18111AH  24045.93092951  .00143802  00000+0  12602-2 0  9998
2 43907  97.0915 287.7813 0010988  50.8130 309.4106 15.68346663286776
SONATE                  
1 44400U 19038Q   24045.95460224  .00024261  00000+0  87149-3 0  9996
2 44400  97.7087  35.1531 0017956 174.0315 186.1141 15.28503336255223
LUCKY-7                 
1 44406U 19038W   24045.90045501  .00036006  00000+0  10687-2 0  9996
2 44406  97.7016  37.8031 0016327 160.3297 199.8578 15.34585436255406
BEESAT 9                
1 44412U 19038AC  24045.95451101  .00098097  00000+0  15924-2 0  9992
2 44412  97.6874  43.1653 0013190 136.8655 223.3633 15.52293632255493
JAISAT-1                
1 44419U 19038F   24045.95104849  .00095450  00000+0  15682-2 0  9994
2 44419  97.6864  44.2531 0012747 136.0265 224.2003 15.51973250255875
DUCHIFAT-3              
1 44854U 19089C   24045.47773176  .00020079  00000+0  11469-2 0  9999
2 44854  36.9593  77.4295 0008831 166.0340 194.0651 15.11976868229513
M2 PATHFINDER           
1 45727U 20037E   24045.76085443  .00006496  00000+0  58328-3 0  9992
2 45727  97.7675 222.9960 0011710 170.4292 189.7154 14.96003865197489
NETSAT-4                
1 46504U 20068U   24045.84328551  .00013993  00000+0  81577-3 0  9991
2 46504  97.7926   0.0721 0012430  68.5069 291.7485 15.12032489185516
NETSAT-3                
1 46505U 20068V   24045.85477240  .00014124  00000+0  83258-3 0  9998
2 46505  97.7902 359.7297 0011810  76.1559 284.0983 15.11637335185511
NETSAT-1                
1 46506U 20068W   24045.86203412  .00010841  00000+0  65891-3 0  9993
2 46506  97.7924 359.4353 0010355  84.2239 276.0170 15.10609581185491
NETSAT-2                
1 46507U 20068X   24045.65472546  .00014200  00000+0  83032-3 0  9997
2 46507  97.7917 359.5538 0009882  89.7861 270.4501 15.11946122185430
WILDTRACKCUBE-SIMBA     
1 47941U 21022K   24045.95500179  .00017623  00000+0  87673-3 0  9995
2 47941  97.4745 304.0993 0015547 209.7836 150.2514 15.17571412159757
BEESAT-6                
1 47957U 21022AB  24045.66964234  .00074807  00000+0  20128-2 0  9994
2 47957  97.4653 309.8215 0010953 172.4214 187.7198 15.37534755159927
SMOG-1                  
1 47964U 21022AJ  24045.85386888  .00067912  00000+0  17660-2 0  9992
2 47964  97.4769 312.8866 0010423 157.7607 202.4092 15.38625199159138
BCCSAT-1                
1 48041U 21022AK  24045.72156408  .00047408  00000+0  14911-2 0  9992
2 48041  97.4763 310.3538 0009188 163.6106 196.5434 15.32769115158935
BEESAT-5                
1 48083U 21022AM  24045.67264655  .00083091  00000+0  19828-2 0  9996
2 48083  97.4472 310.4803 0010092 163.8454 196.3116 15.41184442159130
BEESAT-7                
1 48084U 21022AN  24044.99558905  .00089898  00000+0  24510-2 0  9990
2 48084  97.4701 309.4752 0010068 177.8774 182.2515 15.37067839158568
BEESAT-8                
1 48085U 21022AP  24045.68519726  .00031631  00000+0  12765-2 0  9997
2 48085  97.4826 307.2381 0013157 195.6281 164.4552 15.24651765159011
LEDSAT                  
1 49069U 21073D   24045.68155687  .00019508  00000+0  89705-3 0  9996
2 49069  97.4523 118.0113 0021300   0.6157 359.5101 15.20185948137660
